[{"OBJECT_NAME":"JY1SAT (JO-97)","OBJECT_ID":"2018-099AX","EPOCH":"2026-03-09T16:28:19.890048","MEAN_MOTION":15.30302629,"ECCENTRICITY":0.00047232,"INCLINATION":97.4249,"RA_OF_ASC_NODE":131.3625,"ARG_OF_PERICENTER":256.6795,"MEAN_ANOMALY":103.3919,"EPHEMERIS_TYPE":0,"CLASSIFICATION_TYPE":"U","NORAD_CAT_ID":43803,"ELEMENT_SET_NO":999,"REV_AT_EPOCH":39839,"BSTAR":0.00060804308,"MEAN_MOTION_DOT":0.00017774,"MEAN_MOTION_DDOT":0},{"OBJECT_NAME":"STARLINK-36558","OBJECT_ID":"2026-012G","EPOCH":"2026-03-09T23:15:36.018432","MEAN_MOTION":15.27601336,"ECCENTRICITY":0.00010629,"INCLINATION":42.9999,"RA_OF_ASC_NODE":312.9117,"ARG_OF_PERICENTER":155.2454,"MEAN_ANOMALY":204.8449,"EPHEMERIS_TYPE":0,"CLASSIFICATION_TYPE":"U","NORAD_CAT_ID":67499,"ELEMENT_SET_NO":999,"REV_AT_EPOCH":780,"BSTAR":0.001148142,"MEAN_MOTION_DOT":0.00031488,"MEAN_MOTION_DDOT":0}]
